{
"type": "FeatureCollection",
"name": "Upper_Assiniboine_25km_grids",
"crs": { "type": "name", "properties": { "name": "urn:ogc:def:crs:OGC:1.3:CRS84" } },
"features": [
{ "type": "Feature", "properties": { "MGRS": "13UFS2525", "GRID_LEVEL": "25KM_GRID", "GRID_SIZE_M": 25000, "GZD": "13U", "GRID_100K": "FS", "EASTING": "25", "NORTHING": "25" }, "geometry": { "type": "Polygon", "coordinates": [ [ [ -103.22754863358989, 50.763288890151308 ], [ -103.219001923638857, 50.987998013521427 ], [ -102.863045266928168, 50.982026891678331 ], [ -102.873297268961537, 50.75736510467511 ], [ -103.22754863358989, 50.763288890151308 ] ] ] } },
{ "type": "Feature", "properties": { "MGRS": "13UFS2550", "GRID_LEVEL": "25KM_GRID", "GRID_SIZE_M": 25000, "GZD": "13U", "GRID_100K": "FS", "EASTING": "25", "NORTHING": "50" }, "geometry": { "type": "Polygon", "coordinates": [ [ [ -103.219001923638857, 50.987998013521427 ], [ -103.210344822627633, 51.212697397406892 ], [ -102.852660890541131, 51.206678482318566 ], [ -102.863045266928168, 50.982026891678331 ], [ -103.219001923638857, 50.987998013521427 ] ] ] } },
{ "type": "Feature", "properties": { "MGRS": "13UFS2575", "GRID_LEVEL": "25KM_GRID", "GRID_SIZE_M": 25000, "GZD": "13U", "GRID_100K": "FS", "EASTING": "25", "NORTHING": "75" }, "geometry": { "type": "Polygon", "coordinates": [ [ [ -102.852660890541131, 51.206678482318566 ], [ -103.210344822627633, 51.212697397406892 ], [ -103.201575447847006, 51.437387038363759 ], [ -102.842141883317154, 51.43131986496082 ], [ -102.852660890541131, 51.206678482318566 ] ] ] } },
{ "type": "Feature", "properties": { "MGRS": "13UFS5025", "GRID_LEVEL": "25KM_GRID", "GRID_SIZE_M": 25000, "GZD": "13U", "GRID_100K": "FS", "EASTING": "50", "NORTHING": "25" }, "geometry": { "type": "Polygon", "coordinates": [ [ [ -102.873297268961537, 50.75736510467511 ], [ -102.863045266928168, 50.982026891678331 ], [ -102.50722097596811, 50.97497217139265 ], [ -102.519176065469608, 50.75036629558398 ], [ -102.873297268961537, 50.75736510467511 ] ] ] } },
{ "type": "Feature", "properties": { "MGRS": "13UFS5050", "GRID_LEVEL": "25KM_GRID", "GRID_SIZE_M": 25000, "GZD": "13U", "GRID_100K": "FS", "EASTING": "50", "NORTHING": "50" }, "geometry": { "type": "Polygon", "coordinates": [ [ [ -102.863045266928168, 50.982026891678331 ], [ -102.852660890541131, 51.206678482318566 ], [ -102.495111580437879, 51.199567311577859 ], [ -102.50722097596811, 50.97497217139265 ], [ -102.863045266928168, 50.982026891678331 ] ] ] } },
{ "type": "Feature", "properties": { "MGRS": "13UFS5075", "GRID_LEVEL": "25KM_GRID", "GRID_SIZE_M": 25000, "GZD": "13U", "GRID_100K": "FS", "EASTING": "50", "NORTHING": "75" }, "geometry": { "type": "Polygon", "coordinates": [ [ [ -102.495111580437879, 51.199567311577859 ], [ -102.852660890541131, 51.206678482318566 ], [ -102.842141883317154, 51.43131986496082 ], [ -102.482845250125038, 51.42415169484395 ], [ -102.495111580437879, 51.199567311577859 ] ] ] } },
{ "type": "Feature", "properties": { "MGRS": "13UFS7525", "GRID_LEVEL": "25KM_GRID", "GRID_SIZE_M": 25000, "GZD": "13U", "GRID_100K": "FS", "EASTING": "75", "NORTHING": "25" }, "geometry": { "type": "Polygon", "coordinates": [ [ [ -102.165206589621079, 50.742293475326392 ], [ -102.519176065469608, 50.75036629558398 ], [ -102.50722097596811, 50.97497217139265 ], [ -102.151550981021359, 50.966834880960107 ], [ -102.165206589621079, 50.742293475326392 ] ] ] } },
{ "type": "Feature", "properties": { "MGRS": "13UFS7550", "GRID_LEVEL": "25KM_GRID", "GRID_SIZE_M": 25000, "GZD": "13U", "GRID_100K": "FS", "EASTING": "75", "NORTHING": "50" }, "geometry": { "type": "Polygon", "coordinates": [ [ [ -102.151550981021359, 50.966834880960107 ], [ -102.50722097596811, 50.97497217139265 ], [ -102.495111580437879, 51.199567311577859 ], [ -102.137719194810401, 51.191364929669547 ], [ -102.151550981021359, 50.966834880960107 ] ] ] } },
{ "type": "Feature", "properties": { "MGRS": "13UFS7575", "GRID_LEVEL": "25KM_GRID", "GRID_SIZE_M": 25000, "GZD": "13U", "GRID_100K": "FS", "EASTING": "75", "NORTHING": "75" }, "geometry": { "type": "Polygon", "coordinates": [ [ [ -102.137719194810401, 51.191364929669547 ], [ -102.495111580437879, 51.199567311577859 ], [ -102.482845250125038, 51.42415169484395 ], [ -102.123708231712271, 51.415883589038643 ], [ -102.137719194810401, 51.191364929669547 ] ] ] } },
{ "type": "Feature", "properties": { "MGRS": "13UFT2500", "GRID_LEVEL": "25KM_GRID", "GRID_SIZE_M": 25000, "GZD": "13U", "GRID_100K": "FT", "EASTING": "25", "NORTHING": "00" }, "geometry": { "type": "Polygon", "coordinates": [ [ [ -103.192691872230867, 51.662066933047186 ], [ -102.831485935642434, 51.655951027879539 ], [ -102.842141883317154, 51.43131986496082 ], [ -103.201575447847006, 51.437387038363759 ], [ -103.192691872230867, 51.662066933047186 ] ] ] } },
{ "type": "Feature", "properties": { "MGRS": "13UFT5000", "GRID_LEVEL": "25KM_GRID", "GRID_SIZE_M": 25000, "GZD": "13U", "GRID_100K": "FT", "EASTING": "50", "NORTHING": "00" }, "geometry": { "type": "Polygon", "coordinates": [ [ [ -102.831485935642434, 51.655951027879539 ], [ -102.470419294424303, 51.648725299581379 ], [ -102.482845250125038, 51.42415169484395 ], [ -102.842141883317154, 51.43131986496082 ], [ -102.831485935642434, 51.655951027879539 ] ] ] } },
{ "type": "Feature", "properties": { "MGRS": "13UFT7500", "GRID_LEVEL": "25KM_GRID", "GRID_SIZE_M": 25000, "GZD": "13U", "GRID_100K": "FT", "EASTING": "75", "NORTHING": "00" }, "geometry": { "type": "Polygon", "coordinates": [ [ [ -102.123708231712271, 51.415883589038643 ], [ -102.482845250125038, 51.42415169484395 ], [ -102.470419294424303, 51.648725299581379 ], [ -102.10951502194041, 51.640390826080626 ], [ -102.123708231712271, 51.415883589038643 ] ] ] } },
{ "type": "Feature", "properties": { "MGRS": "13UGS0025", "GRID_LEVEL": "25KM_GRID", "GRID_SIZE_M": 25000, "GZD": "13U", "GRID_100K": "GS", "EASTING": "00", "NORTHING": "25" }, "geometry": { "type": "Polygon", "coordinates": [ [ [ -102.000000179067541, 50.963037610627964 ], [ -102.0, 50.950994340394253 ], [ -102.0, 50.906293561294582 ], [ -102.0, 50.861592438026399 ], [ -102.0, 50.816890970474276 ], [ -102.0, 50.772189158523652 ], [ -102.000000165321964, 50.738156906176222 ], [ -102.165206589621079, 50.742293475326392 ], [ -102.151550981021359, 50.966834880960107 ], [ -102.000000179067541, 50.963037610627964 ] ] ] } },
{ "type": "Feature", "properties": { "MGRS": "13UGS0050", "GRID_LEVEL": "25KM_GRID", "GRID_SIZE_M": 25000, "GZD": "13U", "GRID_100K": "GS", "EASTING": "00", "NORTHING": "50" }, "geometry": { "type": "Polygon", "coordinates": [ [ [ -102.000000191112875, 51.187911982616242 ], [ -102.0, 51.174493077463268 ], [ -102.0, 51.129794017445562 ], [ -102.0, 51.085094613848966 ], [ -102.0, 51.040394866553925 ], [ -102.0, 50.995694775441656 ], [ -102.000000179067541, 50.963037610627964 ], [ -102.151550981021359, 50.966834880960107 ], [ -102.137719194810401, 51.191364929669547 ], [ -102.000000191112875, 51.187911982616242 ] ] ] } },
{ "type": "Feature", "properties": { "MGRS": "13UGS0075", "GRID_LEVEL": "25KM_GRID", "GRID_SIZE_M": 25000, "GZD": "13U", "GRID_100K": "GS", "EASTING": "00", "NORTHING": "75" }, "geometry": { "type": "Polygon", "coordinates": [ [ [ -102.000000201449225, 51.412780032879787 ], [ -102.0, 51.397983228112949 ], [ -102.0, 51.353285884166517 ], [ -102.0, 51.308588197251673 ], [ -102.0, 51.263890167244654 ], [ -102.0, 51.219191794022549 ], [ -102.000000191112875, 51.187911982616242 ], [ -102.137719194810401, 51.191364929669547 ], [ -102.123708231712271, 51.415883589038643 ], [ -102.000000201449225, 51.412780032879787 ] ] ] } },
{ "type": "Feature", "properties": { "MGRS": "13UGT0000", "GRID_LEVEL": "25KM_GRID", "GRID_SIZE_M": 25000, "GZD": "13U", "GRID_100K": "GT", "EASTING": "00", "NORTHING": "00" }, "geometry": { "type": "Polygon", "coordinates": [ [ [ -102.000000210067896, 51.637641772546409 ], [ -102.0, 51.621464807708151 ], [ -102.0, 51.576769176718521 ], [ -102.0, 51.532073203391661 ], [ -102.0, 51.487376887599687 ], [ -102.0, 51.442680229215526 ], [ -102.000000201449225, 51.412780032879787 ], [ -102.123708231712271, 51.415883589038643 ], [ -102.10951502194041, 51.640390826080626 ], [ -102.000000210067896, 51.637641772546409 ] ] ] } },
{ "type": "Feature", "properties": { "MGRS": "14UKB7525", "GRID_LEVEL": "25KM_GRID", "GRID_SIZE_M": 25000, "GZD": "14U", "GRID_100K": "KB", "EASTING": "75", "NORTHING": "25" }, "geometry": { "type": "Polygon", "coordinates": [ [ [ -101.834793410378921, 50.742293475326392 ], [ -101.999999834678036, 50.738156906176222 ], [ -102.0, 50.772189158523652 ], [ -102.0, 50.81689097047429 ], [ -102.0, 50.861592438026413 ], [ -102.0, 50.906293561294582 ], [ -102.0, 50.950994340394253 ], [ -101.999999820932459, 50.963037610627964 ], [ -101.848449018978641, 50.966834880960107 ], [ -101.834793410378921, 50.742293475326392 ] ] ] } },
{ "type": "Feature", "properties": { "MGRS": "14UKB7550", "GRID_LEVEL": "25KM_GRID", "GRID_SIZE_M": 25000, "GZD": "14U", "GRID_100K": "KB", "EASTING": "75", "NORTHING": "50" }, "geometry": { "type": "Polygon", "coordinates": [ [ [ -101.848449018978641, 50.966834880960107 ], [ -101.999999820932459, 50.963037610627964 ], [ -102.0, 50.995694775441656 ], [ -102.0, 51.040394866553925 ], [ -102.0, 51.085094613848966 ], [ -102.0, 51.129794017445562 ], [ -102.0, 51.174493077463268 ], [ -101.999999808887139, 51.187911982616235 ], [ -101.862280805189613, 51.191364929669547 ], [ -101.848449018978641, 50.966834880960107 ] ] ] } },
{ "type": "Feature", "properties": { "MGRS": "14UKB7575", "GRID_LEVEL": "25KM_GRID", "GRID_SIZE_M": 25000, "GZD": "14U", "GRID_100K": "KB", "EASTING": "75", "NORTHING": "75" }, "geometry": { "type": "Polygon", "coordinates": [ [ [ -101.862280805189613, 51.191364929669547 ], [ -101.999999808887139, 51.187911982616235 ], [ -102.0, 51.219191794022549 ], [ -102.0, 51.263890167244661 ], [ -102.0, 51.308588197251673 ], [ -102.0, 51.353285884166517 ], [ -102.0, 51.397983228112949 ], [ -101.999999798550789, 51.412780032879787 ], [ -101.876291768287729, 51.415883589038643 ], [ -101.862280805189613, 51.191364929669547 ] ] ] } },
{ "type": "Feature", "properties": { "MGRS": "14UKC7500", "GRID_LEVEL": "25KM_GRID", "GRID_SIZE_M": 25000, "GZD": "14U", "GRID_100K": "KC", "EASTING": "75", "NORTHING": "00" }, "geometry": { "type": "Polygon", "coordinates": [ [ [ -101.876291768287729, 51.415883589038643 ], [ -101.999999798550789, 51.412780032879787 ], [ -102.0, 51.442680229215526 ], [ -102.0, 51.487376887599694 ], [ -102.0, 51.532073203391668 ], [ -102.0, 51.576769176718521 ], [ -102.0, 51.621464807708151 ], [ -101.999999789932104, 51.637641772546409 ], [ -101.89048497805959, 51.640390826080626 ], [ -101.876291768287729, 51.415883589038643 ] ] ] } },
{ "type": "Feature", "properties": { "MGRS": "14ULB0000", "GRID_LEVEL": "25KM_GRID", "GRID_SIZE_M": 25000, "GZD": "14U", "GRID_100K": "LB", "EASTING": "00", "NORTHING": "00" }, "geometry": { "type": "Polygon", "coordinates": [ [ [ -101.480823934530392, 50.75036629558398 ], [ -101.469020582406159, 50.525749705158567 ], [ -101.82131104863322, 50.517740744645984 ], [ -101.834793410378921, 50.742293475326392 ], [ -101.480823934530392, 50.75036629558398 ] ] ] } },
{ "type": "Feature", "properties": { "MGRS": "14ULB0025", "GRID_LEVEL": "25KM_GRID", "GRID_SIZE_M": 25000, "GZD": "14U", "GRID_100K": "LB", "EASTING": "00", "NORTHING": "25" }, "geometry": { "type": "Polygon", "coordinates": [ [ [ -101.49277902403189, 50.97497217139265 ], [ -101.480823934530392, 50.75036629558398 ], [ -101.834793410378921, 50.742293475326392 ], [ -101.848449018978641, 50.966834880960107 ], [ -101.49277902403189, 50.97497217139265 ] ] ] } },
{ "type": "Feature", "properties": { "MGRS": "14ULB0050", "GRID_LEVEL": "25KM_GRID", "GRID_SIZE_M": 25000, "GZD": "14U", "GRID_100K": "LB", "EASTING": "00", "NORTHING": "50" }, "geometry": { "type": "Polygon", "coordinates": [ [ [ -101.504888419562121, 51.199567311577859 ], [ -101.49277902403189, 50.97497217139265 ], [ -101.848449018978641, 50.966834880960107 ], [ -101.862280805189613, 51.191364929669547 ], [ -101.504888419562121, 51.199567311577859 ] ] ] } },
{ "type": "Feature", "properties": { "MGRS": "14ULB0075", "GRID_LEVEL": "25KM_GRID", "GRID_SIZE_M": 25000, "GZD": "14U", "GRID_100K": "LB", "EASTING": "00", "NORTHING": "75" }, "geometry": { "type": "Polygon", "coordinates": [ [ [ -101.504888419562121, 51.199567311577859 ], [ -101.862280805189613, 51.191364929669547 ], [ -101.876291768287729, 51.415883589038643 ], [ -101.517154749874948, 51.42415169484395 ], [ -101.504888419562121, 51.199567311577859 ] ] ] } }
]
}
